CZ-3B R/B               
1 66587U 25269B   25327.51390516  .00010320 -91384-6  49597-3 0  9990
2 66587  51.3768 174.0599 7525341 225.2938  41.2116  2.01516013    67
SHENZHOU-22             
1 66645U 25272A   25331.84998818  .00016597  00000+0  21579-3 0  9998
2 66645  41.4664 107.0411 0010719 283.2651  76.6991 15.58344779261700
CZ-2F R/B               
1 66646U 25272B   25330.47076975  .00449059  75676-5  29319-3 0  9998
2 66646  41.4431 114.9009 0121079 133.7676 227.3272 16.01945612   217
COSMOS 2597 (RODNIK-S *)
1 66647U 25273A   25331.97331832  .00000003  00000+0 -48596-4 0  9997
2 66647  82.4976 295.6202 0008298 323.5052  36.5461 12.41951138   303
COSMOS 2598 (RODNIK-S *)
1 66648U 25273B   25331.97275013 -.00000022  00000+0 -23176-3 0  9994
2 66648  82.5018 295.6264 0008385 312.2354  47.8013 12.42253449   306
COSMOS 2599 (RODNIK-S *)
1 66649U 25273C   25331.97384348 -.00000036  00000+0 -33813-3 0  9991
2 66649  82.5017 295.6272 0008535 333.5589  26.5053 12.41672035   301
